start=new Date('2023-06-12T00:00:00.000Z').valueOf();
sats=[{"SEMIMAJOR_AXIS":"6917.900","CLASSIFICATION_TYPE":"U","INCLINATION":"53.2173","DECAY_DATE":null,"APOAPSIS":"540.219","ELEMENT_SET_NO":"999","TLE_LINE1":"1 52352U 22045X   23162.87040744  .00001750  00000-0  12799-3 0  9992","COUNTRY_CODE":"US","SITE":"AFETR","REV_AT_EPOCH":"6454","TIME_SYSTEM":"UTC","RA_OF_ASC_NODE":"16.4655","MEAN_ANOMALY":"281.2346","PERIAPSIS":"539.311","MEAN_MOTION_DOT":"0.00001750","ECCENTRICITY":"0.00006560","OBJECT_ID":"2022-045X","CENTER_NAME":"EARTH","MEAN_MOTION_DDOT":"0.0000000000000","LAUNCH_DATE":"2022-04-29","NORAD_CAT_ID":"52352","RCS_SIZE":"LARGE","GP_ID":"233728074","TLE_LINE2":"2 52352  53.2173  16.4655 0000656  78.8720 281.2346 15.08833490 64542","OBJECT_NAME":"STARLINK-3838","EPOCH":"2023-06-11T20:53:23.202816","EPHEMERIS_TYPE":"0","OBJECT_TYPE":"PAYLOAD","MEAN_ELEMENT_THEORY":"SGP4","FILE":"3930737","REF_FRAME":"TEME","ARG_OF_PERICENTER":"78.8720","BSTAR":"0.00012799000000","PERIOD":"95.438","MEAN_MOTION":"15.08833490"},{"SEMIMAJOR_AXIS":"6917.878","CLASSIFICATION_TYPE":"U","INCLINATION":"53.2166","DECAY_DATE":null,"APOAPSIS":"540.696","TLE_LINE1":"1 52353U 22045Y   23162.87776345  .00001078  00000-0  85816-4 0  9990","ELEMENT_SET_NO":"999","COUNTRY_CODE":"US","SITE":"AFETR","REV_AT_EPOCH":"6454","TIME_SYSTEM":"UTC","RA_OF_ASC_NODE":"16.4317","MEAN_ANOMALY":"276.5846","PERIAPSIS":"538.790","MEAN_MOTION_DOT":"0.00001078","ECCENTRICITY":"0.00013780","OBJECT_ID":"2022-045Y","CENTER_NAME":"EARTH","MEAN_MOTION_DDOT":"0.0000000000000","LAUNCH_DATE":"2022-04-29","NORAD_CAT_ID":"52353","RCS_SIZE":"LARGE","GP_ID":"233726326","OBJECT_NAME":"STARLINK-3807","TLE_LINE2":"2 52353  53.2166  16.4317 0001378  83.5303 276.5846 15.08840838 64548","EPOCH":"2023-06-11T21:03:58.762080","EPHEMERIS_TYPE":"0","OBJECT_TYPE":"PAYLOAD","MEAN_ELEMENT_THEORY":"SGP4","FILE":"3930737","REF_FRAME":"TEME","ARG_OF_PERICENTER":"83.5303","BSTAR":"0.00008581600000","PERIOD":"95.438","MEAN_MOTION":"15.08840838"},{"PERIOD":"95.437","MEAN_MOTION":"15.08848757","ARG_OF_PERICENTER":"78.9089","BSTAR":"0.00010868000000","EPOCH":"2023-06-11T20:37:28.731648","EPHEMERIS_TYPE":"0","OBJECT_TYPE":"PAYLOAD","MEAN_ELEMENT_THEORY":"SGP4","FILE":"3930737","REF_FRAME":"TEME","RCS_SIZE":"LARGE","GP_ID":"233727077","TLE_LINE2":"2 52354  53.2184  16.5115 0001152  78.9089 281.2032 15.08848757 64543","OBJECT_NAME":"STARLINK-3876","OBJECT_ID":"2022-045Z","CENTER_NAME":"EARTH","MEAN_MOTION_DDOT":"0.0000000000000","LAUNCH_DATE":"2022-04-29","NORAD_CAT_ID":"52354","RA_OF_ASC_NODE":"16.5115","MEAN_ANOMALY":"281.2032","PERIAPSIS":"538.922","MEAN_MOTION_DOT":"0.00001443","ECCENTRICITY":"0.00011520","SITE":"AFETR","REV_AT_EPOCH":"6454","TIME_SYSTEM":"UTC","CLASSIFICATION_TYPE":"U","SEMIMAJOR_AXIS":"6917.854","INCLINATION":"53.2184","DECAY_DATE":null,"APOAPSIS":"540.516","TLE_LINE1":"1 52354U 22045Z   23162.85936032  .00001443  00000-0  10868-3 0  9990","ELEMENT_SET_NO":"999","COUNTRY_CODE":"US"},{"PERIOD":"95.437","MEAN_MOTION":"15.08849947","ARG_OF_PERICENTER":"88.1760","BSTAR":"0.00015999000000","EPOCH":"2023-06-11T20:58:40.364256","EPHEMERIS_TYPE":"0","OBJECT_TYPE":"PAYLOAD","MEAN_ELEMENT_THEORY":"SGP4","FILE":"3930737","REF_FRAME":"TEME","RCS_SIZE":"LARGE","GP_ID":"233727825","TLE_LINE2":"2 52355  53.2176  16.4455 0001234  88.1760 271.9374 15.08849947 64548","OBJECT_NAME":"STARLINK-3877","OBJECT_ID":"2022-045AA","CENTER_NAME":"EARTH","MEAN_MOTION_DDOT":"0.0000000000000","LAUNCH_DATE":"2022-04-29","NORAD_CAT_ID":"52355","RA_OF_ASC_NODE":"16.4455","MEAN_ANOMALY":"271.9374","PERIAPSIS":"538.861","MEAN_MOTION_DOT":"0.00002260","ECCENTRICITY":"0.00012340","SITE":"AFETR","REV_AT_EPOCH":"6454","TIME_SYSTEM":"UTC","SEMIMAJOR_AXIS":"6917.850","CLASSIFICATION_TYPE":"U","INCLINATION":"53.2176","DECAY_DATE":null,"APOAPSIS":"540.569","TLE_LINE1":"1 52355U 22045AA  23162.87407829  .00002260  00000-0  15999-3 0  9998","ELEMENT_SET_NO":"999","COUNTRY_CODE":"US"},{"PERIOD":"95.437","MEAN_MOTION":"15.08848254","BSTAR":"0.00015121000000","ARG_OF_PERICENTER":"86.6627","EPOCH":"2023-06-11T20:42:46.918656","EPHEMERIS_TYPE":"0","MEAN_ELEMENT_THEORY":"SGP4","FILE":"3930737","OBJECT_TYPE":"PAYLOAD","REF_FRAME":"TEME","RCS_SIZE":"LARGE","GP_ID":"233727574","OBJECT_NAME":"STARLINK-3801","TLE_LINE2":"2 52356  53.2189  16.5219 0001381  86.6627 273.4523 15.08848254 64543","CENTER_NAME":"EARTH","OBJECT_ID":"2022-045AB","MEAN_MOTION_DDOT":"0.0000000000000","LAUNCH_DATE":"2022-04-29","NORAD_CAT_ID":"52356","MEAN_ANOMALY":"273.4523","RA_OF_ASC_NODE":"16.5219","PERIAPSIS":"538.765","MEAN_MOTION_DOT":"0.00002120","ECCENTRICITY":"0.00013810","REV_AT_EPOCH":"6454","SITE":"AFETR","TIME_SYSTEM":"UTC","INCLINATION":"53.2189","SEMIMAJOR_AXIS":"6917.855","CLASSIFICATION_TYPE":"U","DECAY_DATE":null,"APOAPSIS":"540.676","COUNTRY_CODE":"US","ELEMENT_SET_NO":"999","TLE_LINE1":"1 52356U 22045AB  23162.86304304  .00002120  00000-0  15121-3 0  9994"},{"RCS_SIZE":"LARGE","TLE_LINE2":"2 52357  53.2168  16.4770 0001123  87.3529 272.7592 15.08838121 64545","OBJECT_NAME":"STARLINK-3821","GP_ID":"233726827","EPHEMERIS_TYPE":"0","EPOCH":"2023-06-11T20:48:05.197248","REF_FRAME":"TEME","MEAN_ELEMENT_THEORY":"SGP4","FILE":"3930737","OBJECT_TYPE":"PAYLOAD","BSTAR":"0.00011748000000","ARG_OF_PERICENTER":"87.3529","PERIOD":"95.438","MEAN_MOTION":"15.08838121","DECAY_DATE":null,"INCLINATION":"53.2168","SEMIMAJOR_AXIS":"6917.886","CLASSIFICATION_TYPE":"U","COUNTRY_CODE":"US","ELEMENT_SET_NO":"999","TLE_LINE1":"1 52357U 22045AC  23162.86672682  .00001582  00000-0  11748-3 0  9994","APOAPSIS":"540.528","REV_AT_EPOCH":"6454","SITE":"AFETR","TIME_SYSTEM":"UTC","PERIAPSIS":"538.974","MEAN_ANOMALY":"272.7592","RA_OF_ASC_NODE":"16.4770","ECCENTRICITY":"0.00011230","MEAN_MOTION_DOT":"0.00001582","MEAN_MOTION_DDOT":"0.0000000000000","CENTER_NAME":"EARTH","OBJECT_ID":"2022-045AC","NORAD_CAT_ID":"52357","LAUNCH_DATE":"2022-04-29"},{"TLE_LINE1":"1 52358U 22045AD  23162.84832326  .00001654  00000-0  12196-3 0  9994","ELEMENT_SET_NO":"999","COUNTRY_CODE":"US","APOAPSIS":"540.454","DECAY_DATE":null,"SEMIMAJOR_AXIS":"6917.881","CLASSIFICATION_TYPE":"U","INCLINATION":"53.2183","TIME_SYSTEM":"UTC","SITE":"AFETR","REV_AT_EPOCH":"6454","ECCENTRICITY":"0.00010230","MEAN_MOTION_DOT":"0.00001654","PERIAPSIS":"539.038","RA_OF_ASC_NODE":"16.5593","MEAN_ANOMALY":"269.6303","NORAD_CAT_ID":"52358","LAUNCH_DATE":"2022-04-29","MEAN_MOTION_DDOT":"0.0000000000000","OBJECT_ID":"2022-045AD","CENTER_NAME":"EARTH","OBJECT_NAME":"STARLINK-3837","TLE_LINE2":"2 52358  53.2183  16.5593 0001023  90.4806 269.6303 15.08839831 64543","GP_ID":"233726577","RCS_SIZE":"LARGE","REF_FRAME":"TEME","OBJECT_TYPE":"PAYLOAD","MEAN_ELEMENT_THEORY":"SGP4","FILE":"3930737","EPHEMERIS_TYPE":"0","EPOCH":"2023-06-11T20:21:35.129664","ARG_OF_PERICENTER":"90.4806","BSTAR":"0.00012196000000","MEAN_MOTION":"15.08839831","PERIOD":"95.438"},{"DECAY_DATE":null,"SEMIMAJOR_AXIS":"6917.841","CLASSIFICATION_TYPE":"U","INCLINATION":"53.2168","TLE_LINE1":"1 52359U 22045AE  23162.86400042  .00005431  00000-0  35895-3 0  9991","ELEMENT_SET_NO":"999","COUNTRY_CODE":"US","APOAPSIS":"540.475","SITE":"AFETR","REV_AT_EPOCH":"6454","TIME_SYSTEM":"UTC","PERIAPSIS":"538.938","RA_OF_ASC_NODE":"16.4995","MEAN_ANOMALY":"269.3684","ECCENTRICITY":"0.00011110","MEAN_MOTION_DOT":"0.00005431","MEAN_MOTION_DDOT":"0.0000000000000","OBJECT_ID":"2022-045AE","CENTER_NAME":"EARTH","NORAD_CAT_ID":"52359","LAUNCH_DATE":"2022-04-29","RCS_SIZE":"LARGE","OBJECT_NAME":"STARLINK-3853","TLE_LINE2":"2 52359  53.2168  16.4995 0001111  90.7436 269.3684 15.08852727 64540","GP_ID":"233727325","EPHEMERIS_TYPE":"0","EPOCH":"2023-06-11T20:44:09.636288","REF_FRAME":"TEME","OBJECT_TYPE":"PAYLOAD","FILE":"3930737","MEAN_ELEMENT_THEORY":"SGP4","ARG_OF_PERICENTER":"90.7436","BSTAR":"0.00035895000000","PERIOD":"95.437","MEAN_MOTION":"15.08852727"},{"ELEMENT_SET_NO":"999","TLE_LINE1":"1 52360U 22045AF  23162.84188569  .00001112  00000-0  87945-4 0  9994","COUNTRY_CODE":"US","APOAPSIS":"540.685","DECAY_DATE":null,"CLASSIFICATION_TYPE":"U","SEMIMAJOR_AXIS":"6917.882","INCLINATION":"53.2169","TIME_SYSTEM":"UTC","SITE":"AFETR","REV_AT_EPOCH":"6466","ECCENTRICITY":"0.00013560","MEAN_MOTION_DOT":"0.00001112","PERIAPSIS":"538.809","RA_OF_ASC_NODE":"6.5889","MEAN_ANOMALY":"273.6381","NORAD_CAT_ID":"52360","LAUNCH_DATE":"2022-04-29","MEAN_MOTION_DDOT":"0.0000000000000","OBJECT_ID":"2022-045AF","CENTER_NAME":"EARTH","TLE_LINE2":"2 52360  53.2169   6.5889 0001356  86.4766 273.6381 15.08839529 64664","OBJECT_NAME":"STARLINK-3824","GP_ID":"233728075","RCS_SIZE":"LARGE","REF_FRAME":"TEME","OBJECT_TYPE":"PAYLOAD","MEAN_ELEMENT_THEORY":"SGP4","FILE":"3930737","EPHEMERIS_TYPE":"0","EPOCH":"2023-06-11T20:12:18.923616","ARG_OF_PERICENTER":"86.4766","BSTAR":"0.00008794500000","MEAN_MOTION":"15.08839529","PERIOD":"95.438"},{"PERIOD":"95.438","MEAN_MOTION":"15.08829996","BSTAR":"0.00027526000000","ARG_OF_PERICENTER":"87.5369","EPOCH":"2023-06-11T20:32:11.730912","EPHEMERIS_TYPE":"0","MEAN_ELEMENT_THEORY":"SGP4","FILE":"3930737","OBJECT_TYPE":"PAYLOAD","REF_FRAME":"TEME","RCS_SIZE":"LARGE","GP_ID":"233726327","TLE_LINE2":"2 52361  53.2184  16.5254 0001142  87.5369 272.5754 15.08829996 64549","OBJECT_NAME":"STARLINK-3728","CENTER_NAME":"EARTH","OBJECT_ID":"2022-045AG","MEAN_MOTION_DDOT":"0.0000000000000","LAUNCH_DATE":"2022-04-29","NORAD_CAT_ID":"52361","MEAN_ANOMALY":"272.5754","RA_OF_ASC_NODE":"16.5254","PERIAPSIS":"538.986","MEAN_MOTION_DOT":"0.00004094","ECCENTRICITY":"0.00011420","REV_AT_EPOCH":"6454","SITE":"AFETR","TIME_SYSTEM":"UTC","INCLINATION":"53.2184","CLASSIFICATION_TYPE":"U","SEMIMAJOR_AXIS":"6917.911","DECAY_DATE":null,"APOAPSIS":"540.566","COUNTRY_CODE":"US","TLE_LINE1":"1 52361U 22045AG  23162.85569133  .00004094  00000-0  27526-3 0  9996","ELEMENT_SET_NO":"999"}];
